{
  "type": "FeatureCollection",
  "features": [
    {
      "type": "Feature",
      "properties": {
        "norad_id": 64902,
        "name": "CO3D 2",
        "group": "resource",
        "lat": -81.92987558579479,
        "lon": 166.8956085987674,
        "alt_km": 513.1603020943594,
        "timestamp": "2025-12-03T13:52:09.223369+00:00",
        "meta_object_name": "CO3D 2",
        "meta_object_id": "2025-156D",
        "meta_epoch": "2025-12-03T07:57:34.703424",
        "meta_mean_motion": 15.20216291,
        "meta_eccentricity": 0.0001002,
        "meta_inclination": 97.4353,
        "meta_ra_of_asc_node": 53.733,
        "meta_arg_of_pericenter": 114.5364,
        "meta_mean_anomaly": 245.5976,
        "meta_ephemeris_type": 0,
        "meta_classification_type": "U",
        "meta_norad_cat_id": 64902,
        "meta_element_set_no": 999,
        "meta_rev_at_epoch": 1977,
        "meta_bstar": 0.00038994302,
        "meta_mean_motion_dot": 8.387e-05,
        "meta_mean_motion_ddot": 0,
        "tle_line1": "1 64902U 25156D   25337.33165166  .00008387  00000+0  38994-3 0  9992",
        "tle_line2": "2 64902  97.4353  53.7330 0001002 114.5364 245.5976 15.20216291 19773"
      },
      "geometry": {
        "type": "Point",
        "coordinates": [
          166.8956085987674,
          -81.92987558579479
        ]
      }
    },
    {
      "type": "Feature",
      "properties": {
        "norad_id": 64903,
        "name": "CO3D 1",
        "group": "resource",
        "lat": -81.56001253209001,
        "lon": 172.31771831372635,
        "alt_km": 513.1706766046063,
        "timestamp": "2025-12-03T13:52:09.223380+00:00",
        "meta_object_name": "CO3D 1",
        "meta_object_id": "2025-156E",
        "meta_epoch": "2025-12-03T07:57:48.186144",
        "meta_mean_motion": 15.20196725,
        "meta_eccentricity": 9.991e-05,
        "meta_inclination": 97.4352,
        "meta_ra_of_asc_node": 53.7325,
        "meta_arg_of_pericenter": 112.6532,
        "meta_mean_anomaly": 247.4808,
        "meta_ephemeris_type": 0,
        "meta_classification_type": "U",
        "meta_norad_cat_id": 64903,
        "meta_element_set_no": 999,
        "meta_rev_at_epoch": 1977,
        "meta_bstar": 0.0019573207,
        "meta_mean_motion_dot": 0.00042542,
        "meta_mean_motion_ddot": 0,
        "tle_line1": "1 64903U 25156E   25337.33180771  .00042542  00000+0  19573-2 0  9994",
        "tle_line2": "2 64903  97.4352  53.7325 0000999 112.6532 247.4808 15.20196725 19771"
      },
      "geometry": {
        "type": "Point",
        "coordinates": [
          172.31771831372635,
          -81.56001253209001
        ]
      }
    },
    {
      "type": "Feature",
      "properties": {
        "norad_id": 66514,
        "name": "SENTINEL-6B",
        "group": "resource",
        "lat": -56.94292301942376,
        "lon": 44.6509857064788,
        "alt_km": 1315.87589234988,
        "timestamp": "2025-12-03T13:52:09.223390+00:00",
        "meta_object_name": "SENTINEL-6B",
        "meta_object_id": "2025-264A",
        "meta_epoch": "2025-12-03T06:59:27.402432",
        "meta_mean_motion": 12.85877469,
        "meta_eccentricity": 0.00115387,
        "meta_inclination": 66.0389,
        "meta_ra_of_asc_node": 182.1549,
        "meta_arg_of_pericenter": 268.6688,
        "meta_mean_anomaly": 91.3008,
        "meta_ephemeris_type": 0,
        "meta_classification_type": "U",
        "meta_norad_cat_id": 66514,
        "meta_element_set_no": 999,
        "meta_rev_at_epoch": 207,
        "meta_bstar": 0.00029640172,
        "meta_mean_motion_dot": 1.1e-07,
        "meta_mean_motion_ddot": 0,
        "tle_line1": "1 66514U 25264A   25337.29128938  .00000011  00000+0  29640-3 0  9998",
        "tle_line2": "2 66514  66.0389 182.1549 0011538 268.6688  91.3008 12.85877469  2075"
      },
      "geometry": {
        "type": "Point",
        "coordinates": [
          44.6509857064788,
          -56.94292301942376
        ]
      }
    }
  ]
}